{"type": "FeatureCollection", "features": [ {"type": "Feature", "properties": {"norad_id": 66667, "name": "PELICAN-5", "group": "last-30-days", "lat": 29.3914988354912, "lon": -107.18509271389779, "alt_km": 506.5695325333045, "timestamp": "2025-12-22T23:36:19.409623+00:00", "meta": {"OBJECT_NAME": "PELICAN-5", "OBJECT_ID": "2025-276B", "EPOCH": "2025-12-22T11:52:12.709056", "MEAN_MOTION": 15.17771207, "ECCENTRICITY": 0.00063666, "INCLINATION": 97.453, "RA_OF_ASC_NODE": 68.1048, "ARG_OF_PERICENTER": 163.2465, "MEAN_ANOMALY": 196.898, "EPHEMERIS_TYPE": 0, "CLASSIFICATION_TYPE": "U", "NORAD_CAT_ID": 66667, "ELEMENT_SET_NO": 999, "REV_AT_EPOCH": 360, "BSTAR": 0.005866406, "MEAN_MOTION_DOT": 0.0012035, "MEAN_MOTION_DDOT": 0}, "tle": {"line1": "1 66667U 25276B   25356.49459154  .00120350  00000+0  58664-2 0  9996", "line2": "2 66667  97.4530  68.1048 0006366 163.2465 196.8980 15.17771207  3604"}}, "geometry": {"type": "Point", "coordinates": [-107.18509271389779, 29.3914988354912]}}, {"type": "Feature", "properties": {"norad_id": 66668, "name": "TRANSPORTER-15C", "group": "last-30-days", "lat": 73.83339266296969, "lon": 41.75483007470231, "alt_km": 510.676389459848, "timestamp": "2025-12-22T23:36:19.409634+00:00", "meta": {"OBJECT_NAME": "TRANSPORTER-15C", "OBJECT_ID": "2025-276C", "EPOCH": "2025-12-22T12:12:24.823296", "MEAN_MOTION": 15.18687942, "ECCENTRICITY": 0.00169542, "INCLINATION": 97.43, "RA_OF_ASC_NODE": 68.0421, "ARG_OF_PERICENTER": 286.8169, "MEAN_ANOMALY": 73.1206, "EPHEMERIS_TYPE": 0, "CLASSIFICATION_TYPE": "U", "NORAD_CAT_ID": 66668, "ELEMENT_SET_NO": 999, "REV_AT_EPOCH": 360, "BSTAR": 0.037723283, "MEAN_MOTION_DOT": 0.00840908, "MEAN_MOTION_DDOT": 0}, "tle": {"line1": "1 66668U 25276C   25356.50862064  .00840908  00000+0  37723-1 0  9997", "line2": "2 66668  97.4300  68.0421 0016954 286.8169  73.1206 15.18687942  3602"}}, "geometry": {"type": "Point", "coordinates": [41.75483007470231, 73.83339266296969]}}, {"type": "Feature", "properties": {"norad_id": 66669, "name": "TRANSPORTER-15D", "group": "last-30-days", "lat": -76.33293728002275, "lon": -143.87128656853312, "alt_km": 426.79155433037977, "timestamp": "2025-12-22T23:36:19.409644+00:00", "meta": {"OBJECT_NAME": "TRANSPORTER-15D", "OBJECT_ID": "2025-276D", "EPOCH": "2025-12-21T02:39:18.210816", "MEAN_MOTION": 15.34134881, "ECCENTRICITY": 0.00748198, "INCLINATION": 97.4314, "RA_OF_ASC_NODE": 66.7079, "ARG_OF_PERICENTER": 232.3102, "MEAN_ANOMALY": 127.1341, "EPHEMERIS_TYPE": 0, "CLASSIFICATION_TYPE": "U", "NORAD_CAT_ID": 66669, "ELEMENT_SET_NO": 999, "REV_AT_EPOCH": 339, "BSTAR": 0.0027830351, "MEAN_MOTION_DOT": 0.00101698, "MEAN_MOTION_DDOT": 0}, "tle": {"line1": "1 66669U 25276D   25355.11062744  .00101698  00000+0  27830-2 0  9996", "line2": "2 66669  97.4314  66.7079 0074819 232.3102 127.1341 15.34134881  3392"}}, "geometry": {"type": "Point", "coordinates": [-143.87128656853312, -76.33293728002275]}}, {"type": "Feature", "properties": {"norad_id": 66670, "name": "HUNITY", "group": "last-30-days", "lat": 75.08748059512672, "lon": 39.17337470808378, "alt_km": 505.92766378158103, "timestamp": "2025-12-22T23:36:19.409654+00:00", "meta": {"OBJECT_NAME": "HUNITY", "OBJECT_ID": "2025-276E", "EPOCH": "2025-12-22T09:01:20.981856", "MEAN_MOTION": 15.17255653, "ECCENTRICITY": 0.00012793, "INCLINATION": 97.4301, "RA_OF_ASC_NODE": 67.9202, "ARG_OF_PERICENTER": 43.063, "MEAN_ANOMALY": 317.0703, "EPHEMERIS_TYPE": 0, "CLASSIFICATION_TYPE": "U", "NORAD_CAT_ID": 66670, "ELEMENT_SET_NO": 999, "REV_AT_EPOCH": 358, "BSTAR": 0.0051452723, "MEAN_MOTION_DOT": 0.00103729, "MEAN_MOTION_DDOT": 0}, "tle": {"line1": "1 66670U 25276E   25356.37593729  .00103729  00000+0  51453-2 0  9994", "line2": "2 66670  97.4301  67.9202 0001279  43.0630 317.0703 15.17255653  3589"}}, "geometry": {"type": "Point", "coordinates": [39.17337470808378, 75.08748059512672]}}, {"type": "Feature", "properties": {"norad_id": 66671, "name": "TRANSPORTER-15F", "group": "last-30-days", "lat": 82.31076715959277, "lon": -6.9506253855936855, "alt_km": 510.5157700563477, "timestamp": "2025-12-22T23:36:19.409667+00:00", "meta": {"OBJECT_NAME": "TRANSPORTER-15F", "OBJECT_ID": "2025-276F", "EPOCH": "2025-12-22T12:08:15.071136", "MEAN_MOTION": 15.17098873, "ECCENTRICITY": 0.0005121, "INCLINATION": 97.4422, "RA_OF_ASC_NODE": 68.0866, "ARG_OF_PERICENTER": 254.1465, "MEAN_ANOMALY": 105.9204, "EPHEMERIS_TYPE": 0, "CLASSIFICATION_TYPE": "U", "NORAD_CAT_ID": 66671, "ELEMENT_SET_NO": 999, "REV_AT_EPOCH": 360, "BSTAR": 0.00067194468, "MEAN_MOTION_DOT": 0.00013266, "MEAN_MOTION_DDOT": 0}, "tle": {"line1": "1 66671U 25276F   25356.50572999  .00013266  00000+0  67194-3 0  9992", "line2": "2 66671  97.4422  68.0866 0005121 254.1465 105.9204 15.17098873  3605"}}, "geometry": {"type": "Point", "coordinates": [-6.9506253855936855, 82.31076715959277]}}, {"type": "Feature", "properties": {"norad_id": 66672, "name": "TRANSPORTER-15G", "group": "last-30-days", "lat": 60.75626604699833, "lon": 55.04040012072941, "alt_km": 513.8993017547873, "timestamp": "2025-12-22T23:36:19.409677+00:00", "meta": {"OBJECT_NAME": "TRANSPORTER-15G", "OBJECT_ID": "2025-276G", "EPOCH": "2025-12-22T12:15:00.368352", "MEAN_MOTION": 15.16624186, "ECCENTRICITY": 0.00054786, "INCLINATION": 97.4396, "RA_OF_ASC_NODE": 68.073, "ARG_OF_PERICENTER": 251.0277, "MEAN_ANOMALY": 109.0363, "EPHEMERIS_TYPE": 0, "CLASSIFICATION_TYPE": "U", "NORAD_CAT_ID": 66672, "ELEMENT_SET_NO": 999, "REV_AT_EPOCH": 360, "BSTAR": 0.00046724896, "MEAN_MOTION_DOT": 9.076e-05, "MEAN_MOTION_DDOT": 0}, "tle": {"line1": "1 66672U 25276G   25356.51042093  .00009076  00000+0  46725-3 0  9992", "line2": "2 66672  97.4396  68.0730 0005478 251.0277 109.0363 15.16624186  3600"}}, "geometry": {"type": "Point", "coordinates": [55.04040012072941, 60.75626604699833]}}, {"type": "Feature", "properties": {"norad_id": 66673, "name": "TRANSPORTER-15H", "group": "last-30-days", "lat": 79.6070053349834, "lon": 23.125873726434346, "alt_km": 511.1735877428464, "timestamp": "2025-12-22T23:36:19.409689+00:00", "meta": {"OBJECT_NAME": "TRANSPORTER-15H", "OBJECT_ID": "2025-276H", "EPOCH": "2025-12-22T12:09:40.416192", "MEAN_MOTION": 15.17115964, "ECCENTRICITY": 0.00058631, "INCLINATION": 97.4363, "RA_OF_ASC_NODE": 68.0674, "ARG_OF_PERICENTER": 270.3098, "MEAN_ANOMALY": 89.7464, "EPHEMERIS_TYPE": 0, "CLASSIFICATION_TYPE": "U", "NORAD_CAT_ID": 66673, "ELEMENT_SET_NO": 999, "REV_AT_EPOCH": 360, "BSTAR": 0.00090711265, "MEAN_MOTION_DOT": 0.00017954, "MEAN_MOTION_DDOT": 0}, "tle": {"line1": "1 66673U 25276H   25356.50671778  .00017954  00000+0  90711-3 0  9998", "line2": "2 66673  97.4363  68.0674 0005863 270.3098  89.7464 15.17115964  3601"}}, "geometry": {"type": "Point", "coordinates": [23.125873726434346, 79.6070053349834]}}, {"type": "Feature", "properties": {"norad_id": 66674, "name": "TRANSPORTER-15J", "group": "last-30-days", "lat": 54.811449914315325, "lon": 57.851542294293004, "alt_km": 519.6896250760819, "timestamp": "2025-12-22T23:36:19.409700+00:00", "meta": {"OBJECT_NAME": "TRANSPORTER-15J", "OBJECT_ID": "2025-276J", "EPOCH": "2025-12-21T10:53:16.478880", "MEAN_MOTION": 15.15191397, "ECCENTRICITY": 0.00065005, "INCLINATION": 97.4372, "RA_OF_ASC_NODE": 67.0325, "ARG_OF_PERICENTER": 333.1103, "MEAN_ANOMALY": 26.9792, "EPHEMERIS_TYPE": 0, "CLASSIFICATION_TYPE": "U", "NORAD_CAT_ID": 66674, "ELEMENT_SET_NO": 999, "REV_AT_EPOCH": 344, "BSTAR": -0.028180021, "MEAN_MOTION_DOT": -0.00494676, "MEAN_MOTION_DDOT": 0}, "tle": {"line1": "1 66674U 25276J   25355.45366295 -.00494676  00000+0 -28180-1 0  9998", "line2": "2 66674  97.4372  67.0325 0006500 333.1103  26.9792 15.15191397  3449"}}, "geometry": {"type": "Point", "coordinates": [57.851542294293004, 54.811449914315325]}}, {"type": "Feature", "properties": {"norad_id": 66675, "name": "TRANSPORTER-15K", "group": "last-30-days", "lat": 79.29262118905366, "lon": 24.832905240423525, "alt_km": 511.3106044418719, "timestamp": "2025-12-22T23:36:19.409710+00:00", "meta": {"OBJECT_NAME": "TRANSPORTER-15K", "OBJECT_ID": "2025-276K", "EPOCH": "2025-12-22T10:34:42.054528", "MEAN_MOTION": 15.16919443, "ECCENTRICITY": 0.00049502, "INCLINATION": 97.439, "RA_OF_ASC_NODE": 68.0106, "ARG_OF_PERICENTER": 264.0029, "MEAN_ANOMALY": 96.0641, "EPHEMERIS_TYPE": 0, "CLASSIFICATION_TYPE": "U", "NORAD_CAT_ID": 66675, "ELEMENT_SET_NO": 999, "REV_AT_EPOCH": 359, "BSTAR": -0.0013980219, "MEAN_MOTION_DOT": -0.00027509, "MEAN_MOTION_DDOT": 0}, "tle": {"line1": "1 66675U 25276K   25356.44076452 -.00027509  00000+0 -13980-2 0  9992", "line2": "2 66675  97.4390  68.0106 0004950 264.0029  96.0641 15.16919443  3592"}}, "geometry": {"type": "Point", "coordinates": [24.832905240423525, 79.29262118905366]}}, {"type": "Feature", "properties": {"norad_id": 66676, "name": "TRANSPORTER-15L", "group": "last-30-days", "lat": 72.53392557469422, "lon": 44.00587842263616, "alt_km": 509.92906894630505, "timestamp": "2025-12-22T23:36:19.409719+00:00", "meta": {"OBJECT_NAME": "TRANSPORTER-15L", "OBJECT_ID": "2025-276L", "EPOCH": "2025-12-22T12:11:57.805152", "MEAN_MOTION": 15.17103062, "ECCENTRICITY": 0.00043168, "INCLINATION": 97.4385, "RA_OF_ASC_NODE": 68.0732, "ARG_OF_PERICENTER": 236.9713, "MEAN_ANOMALY": 123.1107, "EPHEMERIS_TYPE": 0, "CLASSIFICATION_TYPE": "U", "NORAD_CAT_ID": 66676, "ELEMENT_SET_NO": 999, "REV_AT_EPOCH": 360, "BSTAR": 0.0099083836, "MEAN_MOTION_DOT": 0.00201674, "MEAN_MOTION_DDOT": 0}, "tle": {"line1": "1 66676U 25276L   25356.50830793  .00201674  00000+0  99084-2 0  9990", "line2": "2 66676  97.4385  68.0732 0004316 236.9713 123.1107 15.17103062  3600"}}, "geometry": {"type": "Point", "coordinates": [44.00587842263616, 72.53392557469422]}}]}